[{"OBJECT_NAME":"SITRO-AIS 24","OBJECT_ID":"2024-199G","EPOCH":"2026-03-09T22:55:13.311552","MEAN_MOTION":14.95574575,"ECCENTRICITY":0.00134035,"INCLINATION":97.3325,"RA_OF_ASC_NODE":273.3822,"ARG_OF_PERICENTER":42.6191,"MEAN_ANOMALY":317.6069,"EPHEMERIS_TYPE":0,"CLASSIFICATION_TYPE":"U","NORAD_CAT_ID":61741,"ELEMENT_SET_NO":999,"REV_AT_EPOCH":11705,"BSTAR":0.00037285708,"MEAN_MOTION_DOT":4.091e-5,"MEAN_MOTION_DDOT":0},{"OBJECT_NAME":"STARLINK-34079","OBJECT_ID":"2025-102S","EPOCH":"2026-03-09T12:58:44.274144","MEAN_MOTION":14.9833129,"ECCENTRICITY":0.00033704,"INCLINATION":70.0012,"RA_OF_ASC_NODE":114.6772,"ARG_OF_PERICENTER":271.9361,"MEAN_ANOMALY":88.1413,"EPHEMERIS_TYPE":0,"CLASSIFICATION_TYPE":"U","NORAD_CAT_ID":64038,"ELEMENT_SET_NO":999,"REV_AT_EPOCH":4603,"BSTAR":0.00038216764,"MEAN_MOTION_DOT":4.47e-5,"MEAN_MOTION_DDOT":0}]
